{
  "type": "FeatureCollection",
  "features": [
    {
      "type": "Feature",
      "properties": {
        "norad_id": 66920,
        "name": "HULIANWANG DIGUI-110",
        "group": "last-30-days",
        "lat": -24.71739786959671,
        "lon": -100.04891793441611,
        "alt_km": 889.2223666679147,
        "timestamp": "2025-12-27T11:23:18.580552+00:00",
        "meta_object_name": "HULIANWANG DIGUI-110",
        "meta_object_id": "2025-285F",
        "meta_epoch": "2025-12-27T05:14:51.521568",
        "meta_mean_motion": 14.02751895,
        "meta_eccentricity": 0.0004206,
        "meta_inclination": 50.0093,
        "meta_ra_of_asc_node": 58.263,
        "meta_arg_of_pericenter": 338.6901,
        "meta_mean_anomaly": 21.3827,
        "meta_ephemeris_type": 0,
        "meta_classification_type": "U",
        "meta_norad_cat_id": 66920,
        "meta_element_set_no": 999,
        "meta_rev_at_epoch": 294,
        "meta_bstar": 0.00011948,
        "meta_mean_motion_dot": 3.5e-07,
        "meta_mean_motion_ddot": 0,
        "tle_line1": "1 66920U 25285F   25361.21865187  .00000035  00000+0  11948-3 0  9993",
        "tle_line2": "2 66920  50.0093  58.2630 0004206 338.6901  21.3827 14.02751895  2948"
      },
      "geometry": {
        "type": "Point",
        "coordinates": [
          -100.04891793441611,
          -24.71739786959671
        ]
      }
    },
    {
      "type": "Feature",
      "properties": {
        "norad_id": 66921,
        "name": "HULIANWANG DIGUI-111",
        "group": "last-30-days",
        "lat": -27.792001324120953,
        "lon": -96.53608141593337,
        "alt_km": 889.1453151397827,
        "timestamp": "2025-12-27T11:23:18.580566+00:00",
        "meta_object_name": "HULIANWANG DIGUI-111",
        "meta_object_id": "2025-285G",
        "meta_epoch": "2025-12-27T05:13:39.093312",
        "meta_mean_motion": 14.02951958,
        "meta_eccentricity": 0.0005129,
        "meta_inclination": 50.0134,
        "meta_ra_of_asc_node": 58.2558,
        "meta_arg_of_pericenter": 342.7757,
        "meta_mean_anomaly": 17.2972,
        "meta_ephemeris_type": 0,
        "meta_classification_type": "U",
        "meta_norad_cat_id": 66921,
        "meta_element_set_no": 999,
        "meta_rev_at_epoch": 294,
        "meta_bstar": 1.6104e-05,
        "meta_mean_motion_dot": -1.26e-06,
        "meta_mean_motion_ddot": 0,
        "tle_line1": "1 66921U 25285G   25361.21781358 -.00000126  00000+0  16104-4 0  9993",
        "tle_line2": "2 66921  50.0134  58.2558 0005129 342.7757  17.2972 14.02951958  2941"
      },
      "geometry": {
        "type": "Point",
        "coordinates": [
          -96.53608141593337,
          -27.792001324120953
        ]
      }
    },
    {
      "type": "Feature",
      "properties": {
        "norad_id": 66922,
        "name": "HULIANWANG DIGUI-112",
        "group": "last-30-days",
        "lat": -32.03619322280761,
        "lon": -91.12777941039042,
        "alt_km": 889.3441104300973,
        "timestamp": "2025-12-27T11:23:18.580576+00:00",
        "meta_object_name": "HULIANWANG DIGUI-112",
        "meta_object_id": "2025-285H",
        "meta_epoch": "2025-12-27T05:11:53.071872",
        "meta_mean_motion": 14.03084437,
        "meta_eccentricity": 0.0005268,
        "meta_inclination": 50.0124,
        "meta_ra_of_asc_node": 58.2424,
        "meta_arg_of_pericenter": 355.1139,
        "meta_mean_anomaly": 4.9713,
        "meta_ephemeris_type": 0,
        "meta_classification_type": "U",
        "meta_norad_cat_id": 66922,
        "meta_element_set_no": 999,
        "meta_rev_at_epoch": 294,
        "meta_bstar": 0.00016957,
        "meta_mean_motion_dot": 1.14e-06,
        "meta_mean_motion_ddot": 0,
        "tle_line1": "1 66922U 25285H   25361.21658648  .00000114  00000+0  16957-3 0  9990",
        "tle_line2": "2 66922  50.0124  58.2424 0005268 355.1139   4.9713 14.03084437  2945"
      },
      "geometry": {
        "type": "Point",
        "coordinates": [
          -91.12777941039042,
          -32.03619322280761
        ]
      }
    },
    {
      "type": "Feature",
      "properties": {
        "norad_id": 66923,
        "name": "HULIANWANG DIGUI-113",
        "group": "last-30-days",
        "lat": -36.42170094869616,
        "lon": -84.55533850508786,
        "alt_km": 887.8830368758054,
        "timestamp": "2025-12-27T11:23:18.580587+00:00",
        "meta_object_name": "HULIANWANG DIGUI-113",
        "meta_object_id": "2025-285J",
        "meta_epoch": "2025-12-27T05:09:55.497024",
        "meta_mean_motion": 14.03204548,
        "meta_eccentricity": 0.0003619,
        "meta_inclination": 50.0104,
        "meta_ra_of_asc_node": 58.2357,
        "meta_arg_of_pericenter": 348.6644,
        "meta_mean_anomaly": 11.4178,
        "meta_ephemeris_type": 0,
        "meta_classification_type": "U",
        "meta_norad_cat_id": 66923,
        "meta_element_set_no": 999,
        "meta_rev_at_epoch": 294,
        "meta_bstar": -3.2767e-06,
        "meta_mean_motion_dot": -1.56e-06,
        "meta_mean_motion_ddot": 0,
        "tle_line1": "1 66923U 25285J   25361.21522566 -.00000156  00000+0 -32767-5 0  9997",
        "tle_line2": "2 66923  50.0104  58.2357 0003619 348.6644  11.4178 14.03204548  2940"
      },
      "geometry": {
        "type": "Point",
        "coordinates": [
          -84.55533850508786,
          -36.42170094869616
        ]
      }
    },
    {
      "type": "Feature",
      "properties": {
        "norad_id": 66924,
        "name": "CZ-8A R/B",
        "group": "last-30-days",
        "lat": 13.822587417471327,
        "lon": 65.35156048087526,
        "alt_km": 854.0545953541705,
        "timestamp": "2025-12-27T11:23:18.580599+00:00",
        "meta_object_name": "CZ-8A R/B",
        "meta_object_id": "2025-285K",
        "meta_epoch": "2025-12-27T04:35:45.335616",
        "meta_mean_motion": 14.3050765,
        "meta_eccentricity": 0.0119228,
        "meta_inclination": 50.0086,
        "meta_ra_of_asc_node": 54.638,
        "meta_arg_of_pericenter": 157.6833,
        "meta_mean_anomaly": 202.9332,
        "meta_ephemeris_type": 0,
        "meta_classification_type": "U",
        "meta_norad_cat_id": 66924,
        "meta_element_set_no": 999,
        "meta_rev_at_epoch": 299,
        "meta_bstar": 8.3991e-05,
        "meta_mean_motion_dot": 7.2e-07,
        "meta_mean_motion_ddot": 0,
        "tle_line1": "1 66924U 25285K   25361.19149694  .00000072  00000+0  83991-4 0  9991",
        "tle_line2": "2 66924  50.0086  54.6380 0119228 157.6833 202.9332 14.30507650  2992"
      },
      "geometry": {
        "type": "Point",
        "coordinates": [
          65.35156048087526,
          13.822587417471327
        ]
      }
    },
    {
      "type": "Feature",
      "properties": {
        "norad_id": 66925,
        "name": "STARLINK-35945",
        "group": "last-30-days",
        "lat": -17.142162785624063,
        "lon": -36.130789591859404,
        "alt_km": 411.1433666362627,
        "timestamp": "2025-12-27T11:23:18.580609+00:00",
        "meta_object_name": "STARLINK-35945",
        "meta_object_id": "2025-286A",
        "meta_epoch": "2025-12-27T04:00:01.998720",
        "meta_mean_motion": 15.54372597,
        "meta_eccentricity": 0.0001177,
        "meta_inclination": 53.1594,
        "meta_ra_of_asc_node": 338.7221,
        "meta_arg_of_pericenter": 78.8781,
        "meta_mean_anomaly": 336.8623,
        "meta_ephemeris_type": 0,
        "meta_classification_type": "U",
        "meta_norad_cat_id": 66925,
        "meta_element_set_no": 999,
        "meta_rev_at_epoch": 430,
        "meta_bstar": -0.034497,
        "meta_mean_motion_dot": -0.02052368,
        "meta_mean_motion_ddot": 0,
        "tle_line1": "1 66925U 25286A   25361.16668980 -.02052368  00000+0 -34497-1 0  9997",
        "tle_line2": "2 66925  53.1594 338.7221 0001177  78.8781 336.8623 15.54372597  4304"
      },
      "geometry": {
        "type": "Point",
        "coordinates": [
          -36.130789591859404,
          -17.142162785624063
        ]
      }
    },
    {
      "type": "Feature",
      "properties": {
        "norad_id": 66926,
        "name": "STARLINK-35942",
        "group": "last-30-days",
        "lat": -38.47921443331539,
        "lon": -59.278964621426944,
        "alt_km": 418.7836330786149,
        "timestamp": "2025-12-27T11:23:18.580620+00:00",
        "meta_object_name": "STARLINK-35942",
        "meta_object_id": "2025-286B",
        "meta_epoch": "2025-12-27T04:00:01.998720",
        "meta_mean_motion": 15.5234627,
        "meta_eccentricity": 0.0001032,
        "meta_inclination": 53.1597,
        "meta_ra_of_asc_node": 338.7767,
        "meta_arg_of_pericenter": 103.1707,
        "meta_mean_anomaly": 285.3026,
        "meta_ephemeris_type": 0,
        "meta_classification_type": "U",
        "meta_norad_cat_id": 66926,
        "meta_element_set_no": 999,
        "meta_rev_at_epoch": 430,
        "meta_bstar": -0.034924,
        "meta_mean_motion_dot": -0.019417,
        "meta_mean_motion_ddot": 0,
        "tle_line1": "1 66926U 25286B   25361.16668980 -.01941700  00000+0 -34924-1 0  9999",
        "tle_line2": "2 66926  53.1597 338.7767 0001032 103.1707 285.3026 15.52346270  4305"
      },
      "geometry": {
        "type": "Point",
        "coordinates": [
          -59.278964621426944,
          -38.47921443331539
        ]
      }
    }
  ]
}